[{"OBJECT_NAME":"KUIPER-00063","OBJECT_ID":"2025-134Z","EPOCH":"2026-03-06T04:21:15.786144","MEAN_MOTION":14.80356028,"ECCENTRICITY":5.667e-5,"INCLINATION":51.901,"RA_OF_ASC_NODE":253.6172,"ARG_OF_PERICENTER":53.9859,"MEAN_ANOMALY":306.1156,"EPHEMERIS_TYPE":0,"CLASSIFICATION_TYPE":"U","NORAD_CAT_ID":64523,"ELEMENT_SET_NO":999,"REV_AT_EPOCH":3948,"BSTAR":0.0007306012,"MEAN_MOTION_DOT":5.409e-5,"MEAN_MOTION_DDOT":0},{"OBJECT_NAME":"KUIPER-00064","OBJECT_ID":"2025-134AA","EPOCH":"2026-03-06T06:01:32.345184","MEAN_MOTION":14.79845966,"ECCENTRICITY":0.00013173,"INCLINATION":51.9011,"RA_OF_ASC_NODE":250.7265,"ARG_OF_PERICENTER":40.9824,"MEAN_ANOMALY":319.1237,"EPHEMERIS_TYPE":0,"CLASSIFICATION_TYPE":"U","NORAD_CAT_ID":64524,"ELEMENT_SET_NO":999,"REV_AT_EPOCH":3953,"BSTAR":-0.0028003533,"MEAN_MOTION_DOT":-0.00021457,"MEAN_MOTION_DDOT":0},{"OBJECT_NAME":"KUIPER-00065","OBJECT_ID":"2025-134AB","EPOCH":"2026-03-06T07:30:58.617216","MEAN_MOTION":14.79915215,"ECCENTRICITY":7.931e-5,"INCLINATION":51.9024,"RA_OF_ASC_NODE":255.6092,"ARG_OF_PERICENTER":77.8292,"MEAN_ANOMALY":282.2759,"EPHEMERIS_TYPE":0,"CLASSIFICATION_TYPE":"U","NORAD_CAT_ID":64525,"ELEMENT_SET_NO":999,"REV_AT_EPOCH":3945,"BSTAR":0.00056538268,"MEAN_MOTION_DOT":4.09e-5,"MEAN_MOTION_DDOT":0},{"OBJECT_NAME":"KUIPER-00066","OBJECT_ID":"2025-134AC","EPOCH":"2026-03-05T15:12:52.321824","MEAN_MOTION":15.22930791,"ECCENTRICITY":0.00018129,"INCLINATION":51.8731,"RA_OF_ASC_NODE":203.1946,"ARG_OF_PERICENTER":289.2857,"MEAN_ANOMALY":70.7927,"EPHEMERIS_TYPE":0,"CLASSIFICATION_TYPE":"U","NORAD_CAT_ID":64526,"ELEMENT_SET_NO":999,"REV_AT_EPOCH":4014,"BSTAR":-0.0021323106,"MEAN_MOTION_DOT":-0.0005071,"MEAN_MOTION_DDOT":0},{"OBJECT_NAME":"KUIPER-00069","OBJECT_ID":"2025-151A","EPOCH":"2026-03-05T22:22:39.478368","MEAN_MOTION":14.79938519,"ECCENTRICITY":7.887e-5,"INCLINATION":51.902,"RA_OF_ASC_NODE":297.237,"ARG_OF_PERICENTER":122.6589,"MEAN_ANOMALY":237.4449,"EPHEMERIS_TYPE":0,"CLASSIFICATION_TYPE":"U","NORAD_CAT_ID":64816,"ELEMENT_SET_NO":999,"REV_AT_EPOCH":3620,"BSTAR":0.00028240462,"MEAN_MOTION_DOT":1.933e-5,"MEAN_MOTION_DDOT":0},{"OBJECT_NAME":"KUIPER-00070","OBJECT_ID":"2025-151B","EPOCH":"2026-03-06T03:24:12.669984","MEAN_MOTION":14.79937597,"ECCENTRICITY":8.693e-5,"INCLINATION":51.9014,"RA_OF_ASC_NODE":321.2499,"ARG_OF_PERICENTER":96.0808,"MEAN_ANOMALY":264.0253,"EPHEMERIS_TYPE":0,"CLASSIFICATION_TYPE":"U","NORAD_CAT_ID":64817,"ELEMENT_SET_NO":999,"REV_AT_EPOCH":3589,"BSTAR":0.00073326048,"MEAN_MOTION_DOT":5.374e-5,"MEAN_MOTION_DDOT":0},{"OBJECT_NAME":"KUIPER-00071","OBJECT_ID":"2025-151C","EPOCH":"2026-03-06T01:50:17.253312","MEAN_MOTION":14.80045616,"ECCENTRICITY":5.329e-5,"INCLINATION":51.9023,"RA_OF_ASC_NODE":319.0558,"ARG_OF_PERICENTER":246.6524,"MEAN_ANOMALY":113.4383,"EPHEMERIS_TYPE":0,"CLASSIFICATION_TYPE":"U","NORAD_CAT_ID":64818,"ELEMENT_SET_NO":999,"REV_AT_EPOCH":3473,"BSTAR":0.00070114945,"MEAN_MOTION_DOT":5.142e-5,"MEAN_MOTION_DDOT":0},{"OBJECT_NAME":"KUIPER-00072","OBJECT_ID":"2025-151D","EPOCH":"2026-03-06T01:33:11.477088","MEAN_MOTION":14.79945874,"ECCENTRICITY":0.00012693,"INCLINATION":51.8982,"RA_OF_ASC_NODE":299.0982,"ARG_OF_PERICENTER":99.4793,"MEAN_ANOMALY":260.6313,"EPHEMERIS_TYPE":0,"CLASSIFICATION_TYPE":"U","NORAD_CAT_ID":64819,"ELEMENT_SET_NO":999,"REV_AT_EPOCH":3501,"BSTAR":-0.00017131501,"MEAN_MOTION_DOT":-1.527e-5,"MEAN_MOTION_DDOT":0},{"OBJECT_NAME":"KUIPER-00073","OBJECT_ID":"2025-151E","EPOCH":"2026-03-05T21:47:44.007072","MEAN_MOTION":14.79922374,"ECCENTRICITY":0.00010428,"INCLINATION":51.9014,"RA_OF_ASC_NODE":319.7978,"ARG_OF_PERICENTER":98.2203,"MEAN_ANOMALY":261.8878,"EPHEMERIS_TYPE":0,"CLASSIFICATION_TYPE":"U","NORAD_CAT_ID":64820,"ELEMENT_SET_NO":999,"REV_AT_EPOCH":3589,"BSTAR":0.00023367452,"MEAN_MOTION_DOT":1.56e-5,"MEAN_MOTION_DDOT":0},{"OBJECT_NAME":"KUIPER-00074","OBJECT_ID":"2025-151F","EPOCH":"2026-03-06T06:00:02.000160","MEAN_MOTION":15.0322943,"ECCENTRICITY":0.00026344,"INCLINATION":51.9033,"RA_OF_ASC_NODE":305.0987,"ARG_OF_PERICENTER":245.2062,"MEAN_ANOMALY":71.3217,"EPHEMERIS_TYPE":0,"CLASSIFICATION_TYPE":"U","NORAD_CAT_ID":64821,"ELEMENT_SET_NO":999,"REV_AT_EPOCH":394,"BSTAR":0.0049197649,"MEAN_MOTION_DOT":0.00067737,"MEAN_MOTION_DDOT":0},{"OBJECT_NAME":"KUIPER-00075","OBJECT_ID":"2025-151G","EPOCH":"2026-03-05T21:17:04.073280","MEAN_MOTION":15.41675084,"ECCENTRICITY":0.00038594,"INCLINATION":51.8711,"RA_OF_ASC_NODE":240.2925,"ARG_OF_PERICENTER":263.6828,"MEAN_ANOMALY":96.3721,"EPHEMERIS_TYPE":0,"CLASSIFICATION_TYPE":"U","NORAD_CAT_ID":64822,"ELEMENT_SET_NO":999,"REV_AT_EPOCH":3581,"BSTAR":0.0010839007,"MEAN_MOTION_DOT":0.00046335,"MEAN_MOTION_DDOT":0},{"OBJECT_NAME":"KUIPER-00076","OBJECT_ID":"2025-151H","EPOCH":"2026-03-06T01:04:29.959680","MEAN_MOTION":14.80480861,"ECCENTRICITY":6.352e-5,"INCLINATION":51.9002,"RA_OF_ASC_NODE":309.1113,"ARG_OF_PERICENTER":14.5219,"MEAN_ANOMALY":345.5762,"EPHEMERIS_TYPE":0,"CLASSIFICATION_TYPE":"U","NORAD_CAT_ID":64823,"ELEMENT_SET_NO":999,"REV_AT_EPOCH":3487,"BSTAR":0.0006336758,"MEAN_MOTION_DOT":4.675e-5,"MEAN_MOTION_DDOT":0},{"OBJECT_NAME":"KUIPER-00077","OBJECT_ID":"2025-151J","EPOCH":"2026-03-05T23:30:42.747552","MEAN_MOTION":14.80156372,"ECCENTRICITY":9.405e-5,"INCLINATION":51.9029,"RA_OF_ASC_NODE":314.4926,"ARG_OF_PERICENTER":190.9799,"MEAN_ANOMALY":169.1143,"EPHEMERIS_TYPE":0,"CLASSIFICATION_TYPE":"U","NORAD_CAT_ID":64824,"ELEMENT_SET_NO":999,"REV_AT_EPOCH":3479,"BSTAR":0.00062802142,"MEAN_MOTION_DOT":4.595e-5,"MEAN_MOTION_DDOT":0},{"OBJECT_NAME":"KUIPER-00078","OBJECT_ID":"2025-151K","EPOCH":"2026-03-06T02:02:28.193856","MEAN_MOTION":14.79933799,"ECCENTRICITY":5.628e-5,"INCLINATION":51.9065,"RA_OF_ASC_NODE":311.5267,"ARG_OF_PERICENTER":254.7343,"MEAN_ANOMALY":105.3557,"EPHEMERIS_TYPE":0,"CLASSIFICATION_TYPE":"U","NORAD_CAT_ID":64825,"ELEMENT_SET_NO":999,"REV_AT_EPOCH":3484,"BSTAR":0.00025572355,"MEAN_MOTION_DOT":1.729e-5,"MEAN_MOTION_DDOT":0},{"OBJECT_NAME":"KUIPER-00079","OBJECT_ID":"2025-151L","EPOCH":"2026-03-05T21:51:23.290272","MEAN_MOTION":14.79936631,"ECCENTRICITY":6.88e-5,"INCLINATION":51.9015,"RA_OF_ASC_NODE":317.2693,"ARG_OF_PERICENTER":69.5586,"MEAN_ANOMALY":290.5451,"EPHEMERIS_TYPE":0,"CLASSIFICATION_TYPE":"U","NORAD_CAT_ID":64826,"ELEMENT_SET_NO":999,"REV_AT_EPOCH":3594,"BSTAR":-0.00022898161,"MEAN_MOTION_DOT":-1.966e-5,"MEAN_MOTION_DDOT":0},{"OBJECT_NAME":"KUIPER-00080","OBJECT_ID":"2025-151M","EPOCH":"2026-03-06T01:54:42.699168","MEAN_MOTION":14.79925904,"ECCENTRICITY":5.903e-5,"INCLINATION":51.9002,"RA_OF_ASC_NODE":316.5346,"ARG_OF_PERICENTER":88.249,"MEAN_ANOMALY":271.854,"EPHEMERIS_TYPE":0,"CLASSIFICATION_TYPE":"U","NORAD_CAT_ID":64827,"ELEMENT_SET_NO":999,"REV_AT_EPOCH":3477,"BSTAR":0.00012295244,"MEAN_MOTION_DOT":7.16e-6,"MEAN_MOTION_DDOT":0}]
