KUIPER-00063            
1 64523U 25134Z   26065.18143271  .00005409  00000+0  73060-3 0  9997
2 64523  51.9010 253.6172 0000566  53.9859 306.1156 14.80356028 39483
KUIPER-00064            
1 64524U 25134AA  26065.25106881 -.00021457  00000+0 -28004-2 0  9992
2 64524  51.9011 250.7265 0001317  40.9824 319.1237 14.79845966 39531
KUIPER-00065            
1 64525U 25134AB  26065.31317844  .00004090  00000+0  56538-3 0  9999
2 64525  51.9024 255.6092 0000793  77.8292 282.2759 14.79915215 39458
KUIPER-00066            
1 64526U 25134AC  26064.63393891 -.00050710  00000+0 -21323-2 0  9995
2 64526  51.8731 203.1946 0001812 289.2857  70.7927 15.22930791 40148
KUIPER-00069            
1 64816U 25151A   26064.93240137  .00001933  00000+0  28240-3 0  9990
2 64816  51.9020 297.2370 0000788 122.6589 237.4449 14.79938519 36200
KUIPER-00070            
1 64817U 25151B   26065.14181331  .00005374  00000+0  73326-3 0  9993
2 64817  51.9014 321.2499 0000869  96.0808 264.0253 14.79937597 35890
KUIPER-00071            
1 64818U 25151C   26065.07658858  .00005142  00000+0  70115-3 0  9995
2 64818  51.9023 319.0558 0000532 246.6524 113.4383 14.80045616 34734
KUIPER-00072            
1 64819U 25151D   26065.06471617 -.00001527  00000+0 -17132-3 0  9996
2 64819  51.8982 299.0982 0001269  99.4793 260.6313 14.79945874 35019
KUIPER-00073            
1 64820U 25151E   26064.90814823  .00001560  00000+0  23367-3 0  9992
2 64820  51.9014 319.7978 0001042  98.2203 261.8878 14.79922374 35890
KUIPER-00074            
1 64821U 25151F   26065.25002315  .00067737  00000+0  49198-2 0  9994
2 64821  51.9033 305.0987 0002634 245.2062  71.3217 15.03229430  3948
KUIPER-00075            
1 64822U 25151G   26064.88685270  .00046335  00000+0  10839-2 0  9991
2 64822  51.8711 240.2925 0003859 263.6828  96.3721 15.41675084 35817
KUIPER-00076            
1 64823U 25151H   26065.04479120  .00004675  00000+0  63368-3 0  9993
2 64823  51.9002 309.1113 0000635  14.5219 345.5762 14.80480861 34870
KUIPER-00077            
1 64824U 25151J   26064.97966143  .00004595  00000+0  62802-3 0  9994
2 64824  51.9029 314.4926 0000940 190.9799 169.1143 14.80156372 34793
KUIPER-00078            
1 64825U 25151K   26065.08504854  .00001729  00000+0  25572-3 0  9994
2 64825  51.9065 311.5267 0000562 254.7343 105.3557 14.79933799 34845
KUIPER-00079            
1 64826U 25151L   26064.91068623 -.00001966  00000+0 -22898-3 0  9998
2 64826  51.9015 317.2693 0000688  69.5586 290.5451 14.79936631 35947
KUIPER-00080            
1 64827U 25151M   26065.07966087  .00000716  00000+0  12295-3 0  9998
2 64827  51.9002 316.5346 0000590  88.2490 271.8540 14.79925904 34777
